1 17191U 86097A   09042.77558376  .00000463  00000-0  33698-4 0  4241
2 17191  82.5015 115.7853 0012022 11.7757 348.3745 15.01450187205077

1 26281U 99057FT  09042.35988229  .00004627  00000-0  30570-3 0  9896
2 26281  98.3425 293.5702 0025414 292.4435 67.4052 15.07724983479847


